IRIDIUM 155             
1 43573U 18061E   25012.77749192  .00000454  00000+0  15514-3 0  9995
2 43573  86.3957 274.1328 0001858  93.0421 267.0987 14.34217746338765
IRIDIUM 154             
1 43574U 18061F   25012.75845411  .00000314  00000+0  10497-3 0  9995
2 43574  86.3963 274.2486 0002062  83.9191 276.2239 14.34219247338815
IRIDIUM 163             
1 43575U 18061G   25012.73942475  .00000346  00000+0  11657-3 0  9996
2 43575  86.3960 274.1884 0001940  82.9851 277.1566 14.34220015338784
IRIDIUM 156             
1 43576U 18061H   25012.78382507  .00000454  00000+0  15488-3 0  9992
2 43576  86.3955 274.1764 0002031  94.6951 265.4477 14.34217550338780
IRIDIUM 164             
1 43577U 18061J   25012.83457309  .00000437  00000+0  14883-3 0  9991
2 43577  86.3959 274.1873 0002317  83.3412 276.8047 14.34218481338839
IRIDIUM 159             
1 43578U 18061K   25012.80287248  .00000436  00000+0  14855-3 0  9990
2 43578  86.3958 274.1481 0002190  78.7318 281.4124 14.34220368338796
IRIDIUM 180             
1 43922U 19002A   25012.66282343  .00000144  00000+0  44446-4 0  9990
2 43922  86.3971 211.0910 0001886  89.6720 270.4692 14.34216213314381
IRIDIUM 176             
1 43923U 19002B   25012.86619550  .00000537  00000+0  81305-4 0  9998
2 43923  86.6099 211.0111 0002138  57.0771 303.0651 14.72234939322693
IRIDIUM 168             
1 43924U 19002C   25012.65647191  .00000140  00000+0  42869-4 0  9990
2 43924  86.3973 211.1562 0002023  85.4200 274.7227 14.34217924314369
IRIDIUM 173             
1 43925U 19002D   25012.64378710  .00000138  00000+0  42358-4 0  9998
2 43925  86.3969 211.0719 0001901  90.4665 269.6748 14.34217940314340
IRIDIUM 169             
1 43926U 19002E   25012.69688324  .00000501  00000+0  15720-3 0  9995
2 43926  86.4209 242.6569 0000741 142.1917 217.9334 14.38606952315390
IRIDIUM 172             
1 43927U 19002F   25012.63743951  .00000144  00000+0  44421-4 0  9992
2 43927  86.3970 211.0807 0002003  85.9436 274.1988 14.34217701314354
IRIDIUM 175             
1 43928U 19002G   25012.86084985  .00001800  00000+0  28155-3 0  9998
2 43928  86.1535 172.3702 0002269 122.7056 237.4380 14.72232968322682
IRIDIUM 171             
1 43929U 19002H   25012.82771362  .00000141  00000+0  43127-4 0  9991
2 43929  86.3980 211.2498 0002376  94.9774 265.1693 14.34216940314372
IRIDIUM 170             
1 43930U 19002J   25012.80439809  .00000533  00000+0  80686-4 0  9994
2 43930  86.6098 211.0422 0001983  87.1616 272.9828 14.72235909322692
IRIDIUM 167             
1 43931U 19002K   25012.82137684  .00000146  00000+0  44990-4 0  9991
2 43931  86.3970 211.0218 0002097 101.5671 258.5761 14.34218396314372
IRIDIUM 181             
1 56726U 23068S   25012.78967508  .00000597  00000+0  17048-3 0  9998
2 56726  86.6862 274.1206 0002634  86.5631 273.5872 14.43586594 87378
IRIDIUM 177             
1 56727U 23068T   25012.58735019  .00000084  00000+0  75786-5 0  9993
2 56727  86.1967 215.9241 0001944  79.8340 280.3100 14.80198881 89356
IRIDIUM 174             
1 56728U 23068U   25012.64958135  .00000759  00000+0  96353-4 0  9998
2 56728  86.1975 216.0153 0002481  85.3832 274.7672 14.80223522 89368
IRIDIUM 178             
1 56729U 23068V   25012.71176299  .00002199  00000+0  28597-3 0  9994
2 56729  86.5763 243.3600 0003082  82.5708 277.5863 14.80235089 89372
IRIDIUM 179             
1 56730U 23068W   25012.70636916  .00001867  00000+0  24218-3 0  9999
2 56730  86.6772 250.1346 0002279  88.7542 271.3941 14.80242367 89375
